NORAD_CAT_ID,OBJECT_NAME,OBJECT_TYPE,EPOCH,MEAN_MOTION,ECCENTRICITY,INCLINATION,RA_OF_ASC_NODE,ARG_OF_PERICENTER,MEAN_ANOMALY,BSTAR,MEAN_MOTION_DOT,MEAN_MOTION_DDOT,TLE_LINE0,TLE_LINE1,TLE_LINE2,SEMIMAJOR_AXIS,PERIOD,APOGEE,PERIGEE,DECAYED
51465.0,STARLINK-3401,PAYLOAD,2022-07-18 12:31:43,15.08838173,0.0002315,53.2188,130.4706,56.557,303.5643,-3.0565e-05,-7.75e-06,0.0,0 STARLINK-3401,1 51465U 22010K   22199.52203461 -.00000775  00000-0 -30565-4 0  9996,2 51465  53.2188 130.4706 0002315  56.5570 303.5643 15.08838173 26512,6917.886,95.438,541.352,538.149,0.0
51465.0,STARLINK-3401,PAYLOAD,2022-07-19 12:22:30,15.08841199,0.0002139,53.2185,126.0109,56.5842,303.5354,-3.3874e-05,-8.27e-06,0.0,0 STARLINK-3401,1 51465U 22010K   22200.51563204 -.00000827  00000-0 -33874-4 0  9996,2 51465  53.2185 126.0109 0002139  56.5842 303.5354 15.08841199 26660,6917.877,95.437,541.221,538.262,0.0
51465.0,STARLINK-3401,PAYLOAD,2022-07-19 18:44:02,15.088428099999998,0.0002119,53.2178,124.821,57.6508,302.4689,6.6963e-05,7.78e-06,0.0,0 STARLINK-3401,1 51465U 22010K   22200.78058759  .00000778  00000-0  66963-4 0  9997,2 51465  53.2178 124.8210 0002119  57.6508 302.4689 15.08842810 26705,6917.871999999999,95.437,541.203,538.271,0.0
51465.0,STARLINK-3401,PAYLOAD,2022-07-20 12:13:16,15.08845953,0.0002079,53.2191,121.5506,54.2409,305.8776,0.00012753,1.742e-05,0.0,0 STARLINK-3401,1 51465U 22010K   22201.50922271  .00001742  00000-0  12753-3 0  9996,2 51465  53.2191 121.5506 0002079  54.2409 305.8776 15.08845953 26817,6917.861999999999,95.437,541.165,538.289,0.0
51465.0,STARLINK-3401,PAYLOAD,2022-07-21 00:56:22,15.08840833,0.0001892,53.2174,119.1725,56.1133,304.0039,-7.8807e-06,-4.14e-06,0.0,0 STARLINK-3401,1 51465U 22010K   22202.03914825 -.00000414  00000-0 -78807-5 0  9992,2 51465  53.2174 119.1725 0001892  56.1133 304.0039 15.08840833 26894,6917.878000000002,95.438,541.052,538.434,0.0
51465.0,STARLINK-3401,PAYLOAD,2022-07-21 12:04:06,15.08817578,0.0001927,53.2188,117.0904,55.0889,305.0284,-0.00013842,-2.489e-05,0.0,0 STARLINK-3401,1 51465U 22010K   22202.50285118 -.00002489  00000-0 -13842-3 0  9990,2 51465  53.2188 117.0904 0001927  55.0889 305.0284 15.08817578 26961,6917.949000000001,95.439,541.1469999999998,538.481,0.0
51465.0,STARLINK-3401,PAYLOAD,2022-07-21 18:25:38,15.08822231,0.0001939,53.219,115.9012,52.8542,307.2627,-0.0001774,-3.109e-05,0.0,0 STARLINK-3401,1 51465U 22010K   22202.76781229 -.00003109  00000-0 -17740-3 0  9993,2 51465  53.2190 115.9012 0001939  52.8542 307.2627 15.08822231 27008,6917.935,95.439,541.141,538.4580000000002,0.0
51465.0,STARLINK-3401,PAYLOAD,2022-07-22 03:57:57,15.08825235,0.0001903,53.2186,114.1162,56.8343,303.2832,-0.00013947,-2.506e-05,0.0,0 STARLINK-3401,1 51465U 22010K   22203.16525317 -.00002506  00000-0 -13947-3 0  9997,2 51465  53.2186 114.1162 0001903  56.8343 303.2832 15.08825235 27061,6917.926,95.438,541.107,538.474,0.0
51465.0,STARLINK-3401,PAYLOAD,2022-07-22 19:51:48,15.08830028,0.0001743,53.2188,111.1435,53.4166,306.6986,1.8759e-05,1e-07,0.0,0 STARLINK-3401,1 51465U 22010K   22203.82764873  .00000010  00000-0  18759-4 0  9995,2 51465  53.2188 111.1435 0001743  53.4166 306.6986 15.08830028 27165,6917.911,95.438,540.982,538.57,0.0
51465.0,STARLINK-3401,PAYLOAD,2022-07-23 03:48:44,15.08813831,0.0001881,53.2187,109.6569,57.3722,302.7452,0.00035223,5.318e-05,0.0,0 STARLINK-3401,1 51465U 22010K   22204.15884942  .00005318  00000-0  35223-3 0  9992,2 51465  53.2187 109.6569 0001881  57.3722 302.7452 15.08813831 27212,6917.96,95.439,541.127,538.524,0.0
51465.0,STARLINK-3401,PAYLOAD,2022-07-23 10:10:16,15.08833741,0.0001803,53.2188,108.4675,53.5571,306.5587,0.00011107,1.4800000000000002e-05,0.0,0 STARLINK-3401,1 51465U 22010K   22204.42380706  .00001480  00000-0  11107-3 0  9992,2 51465  53.2188 108.4675 0001803  53.5571 306.5587 15.08833741 27259,6917.9,95.438,541.012,538.5169999999998,0.0
51465.0,STARLINK-3401,PAYLOAD,2022-07-23 21:17:59,15.08826922,0.0001802,53.2186,106.3861,52.3546,307.761,0.00016774,2.382e-05,0.0,0 STARLINK-3401,1 51465U 22010K   22204.88749332  .00002382  00000-0  16774-3 0  9993,2 51465  53.2186 106.3861 0001802  52.3546 307.7610 15.08826922 27320,6917.92,95.438,541.0319999999998,538.539,0.0
51465.0,STARLINK-3401,PAYLOAD,2022-07-24 03:39:32,15.08829233,0.0001805,53.2185,105.1966,50.7256,309.3896,0.00014384,2.001e-05,0.0,0 STARLINK-3401,1 51465U 22010K   22205.15245546  .00002001  00000-0  14384-3 0  9995,2 51465  53.2185 105.1966 0001805  50.7256 309.3896 15.08829233 27361,6917.913000000001,95.438,541.0269999999998,538.53,0.0
51465.0,STARLINK-3401,PAYLOAD,2022-07-24 10:01:04,15.08836269,0.0001817,53.2187,104.0074,51.1282,308.9872,0.00014611,2.038e-05,0.0,0 STARLINK-3401,1 51465U 22010K   22205.41741199  .00002038  00000-0  14611-3 0  9992,2 51465  53.2187 104.0074 0001817  51.1282 308.9872 15.08836269 27409,6917.892,95.438,541.014,538.5,0.0
51465.0,STARLINK-3401,PAYLOAD,2022-07-24 17:57:59,15.08847219,0.0001766,53.2188,102.5204,48.8197,311.2948,6.7983e-05,7.94e-06,0.0,0 STARLINK-3401,1 51465U 22010K   22205.74860771  .00000794  00000-0  67983-4 0  9994,2 51465  53.2188 102.5204 0001766  48.8197 311.2948 15.08847219 27452,6917.858,95.437,540.945,538.502,0.0
51465.0,STARLINK-3401,PAYLOAD,2022-07-25 00:19:32,15.0884186,0.0001791,53.2191,101.3306,47.3045,312.8098,1.822e-05,2e-08,0.0,0 STARLINK-3401,1 51465U 22010K   22206.01357144  .00000002  00000-0  18220-4 0  9992,2 51465  53.2191 101.3306 0001791  47.3045 312.8098 15.08841860 27493,6917.875,95.437,540.979,538.501,0.0
51465.0,STARLINK-3401,PAYLOAD,2022-07-25 09:51:51,15.08838669,0.0001809,53.2189,99.5465,49.4841,310.6308,1.0097e-05,-1.27e-06,0.0,0 STARLINK-3401,1 51465U 22010K   22206.41101345 -.00000127  00000-0  10097-4 0  9999,2 51465  53.2189  99.5465 0001809  49.4841 310.6308 15.08838669 27551,6917.884,95.438,541.001,538.498,0.0
51465.0,STARLINK-3401,PAYLOAD,2022-07-25 17:48:46,15.08840313,0.0001744,53.2188,98.0596,46.8737,313.2401,5.602e-05,6.04e-06,0.0,0 STARLINK-3401,1 51465U 22010K   22206.74220996  .00000604  00000-0  56020-4 0  9994,2 51465  53.2188  98.0596 0001744  46.8737 313.2401 15.08840313 27600,6917.879,95.438,540.951,538.538,0.0
51465.0,STARLINK-3401,PAYLOAD,2022-07-26 01:45:42,15.08835225,0.0001756,53.2192,96.573,41.7148,318.3978,7.918899999999999e-05,9.72e-06,0.0,0 STARLINK-3401,1 51465U 22010K   22207.07341252  .00000972  00000-0  79189-4 0  9999,2 51465  53.2192  96.5730 0001756  41.7148 318.3978 15.08835225 27657,6917.895,95.438,540.975,538.545,0.0
51465.0,STARLINK-3401,PAYLOAD,2022-07-26 20:50:20,15.0883851,0.000198,53.219,93.0052,52.1772,307.94,-3.1695e-05,-7.93e-06,0.0,0 STARLINK-3401,1 51465U 22010K   22207.86829591 -.00000793  00000-0 -31695-4 0  9996,2 51465  53.2190  93.0052 0001980  52.1772 307.9400 15.08838510 27779,6917.885,95.438,541.12,538.38,0.0
51465.0,STARLINK-3401,PAYLOAD,2022-07-27 09:33:25,15.08838487,0.0001769,53.2186,90.6262,54.8469,305.2689,6.4149e-05,7.33e-06,0.0,0 STARLINK-3401,1 51465U 22010K   22208.39821266  .00000733  00000-0  64149-4 0  9998,2 51465  53.2186  90.6262 0001769  54.8469 305.2689 15.08838487 27859,6917.885,95.438,540.974,538.526,0.0
51465.0,STARLINK-3401,PAYLOAD,2022-07-28 09:24:11,15.0884566,0.0001932,53.2188,86.1659,56.8146,303.3031,0.00017162,2.445e-05,0.0,0 STARLINK-3401,1 51465U 22010K   22209.39180297  .00002445  00000-0  17162-3 0  9995,2 51465  53.2188  86.1659 0001932  56.8146 303.3031 15.08845660 28006,6917.863,95.437,541.065,538.3919999999998,0.0
51465.0,STARLINK-3401,PAYLOAD,2022-07-28 18:56:31,15.0883854,0.0001963,53.2189,84.3822,58.4619,301.6565,5.6478e-05,6.11e-06,0.0,0 STARLINK-3401,1 51465U 22010K   22209.78925057  .00000611  00000-0  56478-4 0  9996,2 51465  53.2189  84.3822 0001963  58.4619 301.6565 15.08838540 28064,6917.885,95.438,541.1080000000002,538.3919999999998,0.0
51465.0,STARLINK-3401,PAYLOAD,2022-07-29 01:18:03,15.08839522,0.0001956999999999,53.2189,83.1926,58.9529,301.1655,4.0909e-05,3.63e-06,0.0,0 STARLINK-3401,1 51465U 22010K   22210.05421031  .00000363  00000-0  40909-4 0  9997,2 51465  53.2189  83.1926 0001957  58.9529 301.1655 15.08839522 28105,6917.882,95.438,541.101,538.393,0.0
51465.0,STARLINK-3401,PAYLOAD,2022-07-29 17:11:54,15.08848506,0.0001986,53.2187,80.2194,59.0692,301.0495,3.4864000000000004e-05,2.67e-06,0.0,0 STARLINK-3401,1 51465U 22010K   22210.71660252  .00000267  00000-0  34864-4 0  9996,2 51465  53.2187  80.2194 0001986  59.0692 301.0495 15.08848506 28207,6917.854,95.437,541.0930000000002,538.346,0.0
51465.0,STARLINK-3401,PAYLOAD,2022-07-30 01:08:50,15.08840025,0.0001703,53.22,78.73100000000002,66.0294,294.0876,2.0341e-05,3.6e-07,0.0,0 STARLINK-3401,1 51465U 22010K   22211.04780688  .00000036  00000-0  20341-4 0  9998,2 51465  53.2200  78.7310 0001703  66.0294 294.0876 15.08840025 28255,6917.88,95.438,540.923,538.567,0.0
51465.0,STARLINK-3401,PAYLOAD,2022-07-30 21:48:51,15.08835381,0.0001788,53.2178,74.8663,54.082,306.0338,-1.3858e-05,-5.09e-06,0.0,0 STARLINK-3401,1 51465U 22010K   22211.90893138 -.00000509  00000-0 -13858-4 0  9990,2 51465  53.2178  74.8663 0001788  54.0820 306.0338 15.08835381 28382,6917.895,95.438,540.996,538.523,0.0
51465.0,STARLINK-3401,PAYLOAD,2022-07-31 02:35:00,15.08837866,0.0001851,53.2188,73.9746,55.27,304.8466,1.7517000000000002e-05,-9e-08,0.0,0 STARLINK-3401,1 51465U 22010K   22212.10764919 -.00000009  00000-0  17517-4 0  9997,2 51465  53.2188  73.9746 0001851  55.2700 304.8466 15.08837866 28418,6917.887,95.438,541.0319999999998,538.471,0.0
51465.0,STARLINK-3401,PAYLOAD,2022-07-31 07:21:10,15.08838014,0.0001835,53.2188,73.0825,57.0052,303.1116,4.8894e-06,-2.1e-06,0.0,0 STARLINK-3401,1 51465U 22010K   22212.30636961 -.00000210  00000-0  48894-5 0  9991,2 51465  53.2188  73.0825 0001835  57.0052 303.1116 15.08838014 28442,6917.886,95.438,541.021,538.482,0.0
